ONEWEB-0387             
1 49313U 21090AL  25058.37158268  .00000127  00000+0  27986-3 0  9996
2 49313  87.9297   8.9826 0001477  76.9166 283.2132 13.20771665167149
ONEWEB-0388             
1 49314U 21090AM  25058.49144653  .00000126  00000+0  28264-3 0  9992
2 49314  87.9179  39.3288 0001814  89.7040 270.4301 13.19724301163805
ONEWEB-0389             
1 50469U 21132A   25058.52172202  .00000050  00000+0  96294-4 0  9992
2 50469  87.9030 100.4346 0001517  99.5208 260.6095 13.17648461155570
ONEWEB-0390             
1 50470U 21132B   25058.52341516  .00000122  00000+0  28190-3 0  9999
2 50470  87.9029 100.4413 0001875  87.3259 272.8087 13.17648112155572
ONEWEB-0391             
1 50471U 21132C   25058.52508851  .00000030  00000+0  43841-4 0  9996
2 50471  87.9036 100.4448 0000975  91.2737 268.8506 13.17646349155575
ONEWEB-0392             
1 50472U 21132D   25058.55546382  .00000146  00000+0  34187-3 0  9991
2 50472  87.9021 100.4025 0001435  99.9840 260.1454 13.17646558155617
ONEWEB-0393             
1 50473U 21132E   25058.52861378  .00000023  00000+0  26755-4 0  9991
2 50473  87.9030 100.4100 0001709  97.1890 262.9435 13.17647485155609
ONEWEB-0394             
1 50474U 21132F   25058.49036493  .00000091  00000+0  19691-3 0  9995
2 50474  87.9040  69.8400 0001764  92.7455 267.3879 13.18685632159030
